{
    "links": {
        "self": "http://www.neowsapp.com/rest/v1/neo/3775114?api_key=iIulBulltgU6a56xZRHN4H3l9WmuAYTsLGpBGhQ2"
    },
    "id": "3775114",
    "neo_reference_id": "3775114",
    "name": "(2017 KL32)",
    "designation": "2017 KL32",
    "nasa_jpl_url": "http://ssd.jpl.nasa.gov/sbdb.cgi?sstr=3775114",
    "absolute_magnitude_h": 24.0,
    "estimated_diameter": {
        "kilometers": {
            "estimated_diameter_min": 0.0421264611,
            "estimated_diameter_max": 0.0941976306
        },
        "meters": {
            "estimated_diameter_min": 42.1264610556,
            "estimated_diameter_max": 94.1976305719
        },
        "miles": {
            "estimated_diameter_min": 0.0261761612,
            "estimated_diameter_max": 0.0585316759
        },
        "feet": {
            "estimated_diameter_min": 138.2101784897,
            "estimated_diameter_max": 309.0473542854
        }
    },
    "is_potentially_hazardous_asteroid": false,
    "close_approach_data": [
        {
            "close_approach_date": "2017-05-17",
            "close_approach_date_full": "2017-May-17 21:06",
            "epoch_date_close_approach": 1495055160000,
            "relative_velocity": {
                "kilometers_per_second": "16.6416171067",
                "kilometers_per_hour": "59909.8215842176",
                "miles_per_hour": "37225.6333060378"
            },
            "miss_distance": {
                "astronomical": "0.0409959136",
                "lunar": "15.9474103904",
                "kilometers": "6132901.353264032",
                "miles": "3810808.1913943616"
            },
            "orbiting_body": "Earth"
        }
    ],
    "orbital_data": {
        "orbit_id": "2",
        "orbit_determination_date": "2017-06-02 06:18:06",
        "first_observation_date": "2017-05-27",
        "last_observation_date": "2017-06-02",
        "data_arc_in_days": 6,
        "observations_used": 31,
        "orbit_uncertainty": "9",
        "minimum_orbit_intersection": ".0187985",
        "jupiter_tisserand_invariant": "3.496",
        "epoch_osculation": "2457901.5",
        "eccentricity": ".6332449059148019",
        "semi_major_axis": "2.061749217433948",
        "inclination": "4.159791658416064",
        "ascending_node_longitude": "83.45741398005063",
        "orbital_period": "1081.314892674489",
        "perihelion_distance": ".756157028220071",
        "perihelion_argument": "81.75247110916555",
        "aphelion_distance": "3.367341406647824",
        "perihelion_time": "2457845.845099789211",
        "mean_anomaly": "18.5290743812177",
        "mean_motion": ".3329279957567104",
        "equinox": "J2000",
        "orbit_class": {
            "orbit_class_type": "APO",
            "orbit_class_description": "Near-Earth asteroid orbits which cross the Earth’s orbit similar to that of 1862 Apollo",
            "orbit_class_range": "a (semi-major axis) > 1.0 AU; q (perihelion) < 1.017 AU"
        }
    },
    "is_sentry_object": false
}